{
  "links" : {
    "next" : "https://api.nasa.gov/neo/rest/v1/feed?start_date=2012-12-09&end_date=2012-12-09&detailed=true&api_key=t0TVs3DtDT2H8Oy2Zy8m2eVrNsAVKAexjcZXUckd",
    "prev" : "https://api.nasa.gov/neo/rest/v1/feed?start_date=2012-12-07&end_date=2012-12-07&detailed=true&api_key=t0TVs3DtDT2H8Oy2Zy8m2eVrNsAVKAexjcZXUckd",
    "self" : "https://api.nasa.gov/neo/rest/v1/feed?start_date=2012-12-08&end_date=2012-12-08&detailed=true&api_key=t0TVs3DtDT2H8Oy2Zy8m2eVrNsAVKAexjcZXUckd"
  },
  "element_count" : 9,
  "near_earth_objects" : {
    "2012-12-08" : [ {
      "links" : {
        "self" : "https://api.nasa.gov/neo/rest/v1/neo/3607924?api_key=t0TVs3DtDT2H8Oy2Zy8m2eVrNsAVKAexjcZXUckd"
      },
      "neo_reference_id" : "3607924",
      "name" : "(2012 QP17)",
      "nasa_jpl_url" : "http://ssd.jpl.nasa.gov/sbdb.cgi?sstr=3607924",
      "absolute_magnitude_h" : 18.6,
      "estimated_diameter" : {
        "kilometers" : {
          "estimated_diameter_min" : 0.5064714588,
          "estimated_diameter_max" : 1.1325046106
        },
        "meters" : {
          "estimated_diameter_min" : 506.4714588346,
          "estimated_diameter_max" : 1132.5046106177
        },
        "miles" : {
          "estimated_diameter_min" : 0.3147066768,
          "estimated_diameter_max" : 0.7037055224
        },
        "feet" : {
          "estimated_diameter_min" : 1661.651821003,
          "estimated_diameter_max" : 3715.566426699
        }
      },
      "is_potentially_hazardous_asteroid" : false,
      "close_approach_data" : [ {
        "close_approach_date" : "2012-12-08",
        "epoch_date_close_approach" : 1354953600000,
        "relative_velocity" : {
          "kilometers_per_second" : "7.6406525718",
          "kilometers_per_hour" : "27506.3492583029",
          "miles_per_hour" : "17091.3757377494"
        },
        "miss_distance" : {
          "astronomical" : "0.261542992",
          "lunar" : "101.7402267456",
          "kilometers" : "39126276",
          "miles" : "24311942"
        },
        "orbiting_body" : "Earth"
      } ],
      "orbital_data" : {
        "orbit_id" : "45",
        "orbit_determination_date" : "2017-08-18 08:12:03",
        "orbit_uncertainty" : "0",
        "minimum_orbit_intersection" : ".229806",
        "jupiter_tisserand_invariant" : "2.927",
        "epoch_osculation" : "2458000.5",
        "eccentricity" : ".6352988506950064",
        "semi_major_axis" : "2.86456135557034",
        "inclination" : "14.27744730332378",
        "ascending_node_longitude" : "166.2448482648358",
        "orbital_period" : "1770.865675020345",
        "perihelion_distance" : "1.044708818631173",
        "perihelion_argument" : "261.5189137708488",
        "aphelion_distance" : "4.684413892509506",
        "perihelion_time" : "2458033.639320192164",
        "mean_anomaly" : "353.2630941818655",
        "mean_motion" : ".2032904048444352",
        "equinox" : "J2000"
      }
    }, {
      "links" : {
        "self" : "https://api.nasa.gov/neo/rest/v1/neo/3655365?api_key=t0TVs3DtDT2H8Oy2Zy8m2eVrNsAVKAexjcZXUckd"
      },
      "neo_reference_id" : "3655365",
      "name" : "(2013 YG)",
      "nasa_jpl_url" : "http://ssd.jpl.nasa.gov/sbdb.cgi?sstr=3655365",
      "absolute_magnitude_h" : 25.4,
      "estimated_diameter" : {
        "kilometers" : {
          "estimated_diameter_min" : 0.022108281,
          "estimated_diameter_max" : 0.0494356193
        },
        "meters" : {
          "estimated_diameter_min" : 22.1082810359,
          "estimated_diameter_max" : 49.435619262
        },
        "miles" : {
          "estimated_diameter_min" : 0.0137374447,
          "estimated_diameter_max" : 0.0307178602
        },
        "feet" : {
          "estimated_diameter_min" : 72.5337327539,
          "estimated_diameter_max" : 162.1903570994
        }
      },
      "is_potentially_hazardous_asteroid" : false,
      "close_approach_data" : [ {
        "close_approach_date" : "2012-12-08",
        "epoch_date_close_approach" : 1354953600000,
        "relative_velocity" : {
          "kilometers_per_second" : "8.505529457",
          "kilometers_per_hour" : "30619.9060452615",
          "miles_per_hour" : "19026.0188424015"
        },
        "miss_distance" : {
          "astronomical" : "0.1780377683",
          "lunar" : "69.256690979",
          "kilometers" : "26634070",
          "miles" : "16549644"
        },
        "orbiting_body" : "Earth"
      } ],
      "orbital_data" : {
        "orbit_id" : "10",
        "orbit_determination_date" : "2017-04-06 08:43:14",
        "orbit_uncertainty" : "5",
        "minimum_orbit_intersection" : ".0334638",
        "jupiter_tisserand_invariant" : "6.187",
        "epoch_osculation" : "2458000.5",
        "eccentricity" : ".07816389233939973",
        "semi_major_axis" : ".9762915595187789",
        "inclination" : "7.130930989381911",
        "ascending_node_longitude" : "272.4929131717997",
        "orbital_period" : "352.3446883711152",
        "perihelion_distance" : ".8999808111686884",
        "perihelion_argument" : "50.44054152790043",
        "aphelion_distance" : "1.052602307868869",
        "perihelion_time" : "2457940.495777248750",
        "mean_anomaly" : "61.3079206339493",
        "mean_motion" : "1.021726768932647",
        "equinox" : "J2000"
      }
    }, {
      "links" : {
        "self" : "https://api.nasa.gov/neo/rest/v1/neo/3701857?api_key=t0TVs3DtDT2H8Oy2Zy8m2eVrNsAVKAexjcZXUckd"
      },
      "neo_reference_id" : "3701857",
      "name" : "(2014 XU6)",
      "nasa_jpl_url" : "http://ssd.jpl.nasa.gov/sbdb.cgi?sstr=3701857",
      "absolute_magnitude_h" : 23.9,
      "estimated_diameter" : {
        "kilometers" : {
          "estimated_diameter_min" : 0.04411182,
          "estimated_diameter_max" : 0.0986370281
        },
        "meters" : {
          "estimated_diameter_min" : 44.1118199997,
          "estimated_diameter_max" : 98.6370281305
        },
        "miles" : {
          "estimated_diameter_min" : 0.0274098057,
          "estimated_diameter_max" : 0.0612901888
        },
        "feet" : {
          "estimated_diameter_min" : 144.7238235278,
          "estimated_diameter_max" : 323.6123073718
        }
      },
      "is_potentially_hazardous_asteroid" : false,
      "close_approach_data" : [ {
        "close_approach_date" : "2012-12-08",
        "epoch_date_close_approach" : 1354953600000,
        "relative_velocity" : {
          "kilometers_per_second" : "16.1026845567",
          "kilometers_per_hour" : "57969.6644041996",
          "miles_per_hour" : "36020.0950849317"
        },
        "miss_distance" : {
          "astronomical" : "0.1244803569",
          "lunar" : "48.4228591919",
          "kilometers" : "18621996",
          "miles" : "11571172"
        },
        "orbiting_body" : "Earth"
      } ],
      "orbital_data" : {
        "orbit_id" : "8",
        "orbit_determination_date" : "2017-04-06 08:36:56",
        "orbit_uncertainty" : "2",
        "minimum_orbit_intersection" : ".0958236",
        "jupiter_tisserand_invariant" : "7.436",
        "epoch_osculation" : "2458000.5",
        "eccentricity" : ".4340245054410481",
        "semi_major_axis" : ".7603166378463504",
        "inclination" : "30.73189790759152",
        "ascending_node_longitude" : "259.2968837400363",
        "orbital_period" : "242.1531752388594",
        "perihelion_distance" : ".4303205851264877",
        "perihelion_argument" : "351.9828500987373",
        "aphelion_distance" : "1.090312690566213",
        "perihelion_time" : "2458082.596406940132",
        "mean_anomaly" : "237.9503656340881",
        "mean_motion" : "1.486662314648143",
        "equinox" : "J2000"
      }
    } ]
  }
}